{"type": "FeatureCollection", "features": [ {"type": "Feature", "properties": {"norad_id": 66837, "name": "STARLINK-35729", "group": "last-30-days", "lat": -0.735895126409415, "lon": -178.98576276706726, "alt_km": 403.28064179502144, "timestamp": "2025-12-18T23:35:47.782142+00:00", "meta": {"OBJECT_NAME": "STARLINK-35729", "OBJECT_ID": "2025-280S", "EPOCH": "2025-12-18T14:00:03.000384", "MEAN_MOTION": 15.57278327, "ECCENTRICITY": 0.00034115, "INCLINATION": 69.9998, "RA_OF_ASC_NODE": 182.3833, "ARG_OF_PERICENTER": 264.9277, "MEAN_ANOMALY": 14.8232, "EPHEMERIS_TYPE": 0, "CLASSIFICATION_TYPE": "U", "NORAD_CAT_ID": 66837, "ELEMENT_SET_NO": 999, "REV_AT_EPOCH": 383, "BSTAR": -0.030903641, "MEAN_MOTION_DOT": -0.01988373, "MEAN_MOTION_DDOT": 0}, "tle": {"line1": "1 66837U 25280S   25352.58336806 -.01988373  00000+0 -30904-1 0  9990", "line2": "2 66837  69.9998 182.3833 0003411 264.9277  14.8232 15.57278327  3837"}}, "geometry": {"type": "Point", "coordinates": [-178.98576276706726, -0.735895126409415]}}, {"type": "Feature", "properties": {"norad_id": 66838, "name": "STARLINK-35886", "group": "last-30-days", "lat": 2.8632449137614406, "lon": -177.67878248862428, "alt_km": 402.9740093152386, "timestamp": "2025-12-18T23:35:47.782152+00:00", "meta": {"OBJECT_NAME": "STARLINK-35886", "OBJECT_ID": "2025-280T", "EPOCH": "2025-12-18T14:00:03.000384", "MEAN_MOTION": 15.57276989, "ECCENTRICITY": 0.0003292, "INCLINATION": 69.9992, "RA_OF_ASC_NODE": 182.3784, "ARG_OF_PERICENTER": 263.835, "MEAN_ANOMALY": 19.7469, "EPHEMERIS_TYPE": 0, "CLASSIFICATION_TYPE": "U", "NORAD_CAT_ID": 66838, "ELEMENT_SET_NO": 999, "REV_AT_EPOCH": 383, "BSTAR": -0.030846973, "MEAN_MOTION_DOT": -0.01984983, "MEAN_MOTION_DDOT": 0}, "tle": {"line1": "1 66838U 25280T   25352.58336806 -.01984983  00000+0 -30847-1 0  9990", "line2": "2 66838  69.9992 182.3784 0003292 263.8350  19.7469 15.57276989  3832"}}, "geometry": {"type": "Point", "coordinates": [-177.67878248862428, 2.8632449137614406]}}, {"type": "Feature", "properties": {"norad_id": 66839, "name": "STARLINK-35717", "group": "last-30-days", "lat": 1.0653165182123112, "lon": -178.33215017616294, "alt_km": 403.1261689822668, "timestamp": "2025-12-18T23:35:47.782162+00:00", "meta": {"OBJECT_NAME": "STARLINK-35717", "OBJECT_ID": "2025-280U", "EPOCH": "2025-12-18T14:00:03.000384", "MEAN_MOTION": 15.57275087, "ECCENTRICITY": 0.00035246, "INCLINATION": 69.9993, "RA_OF_ASC_NODE": 182.3808, "ARG_OF_PERICENTER": 264.6982, "MEAN_ANOMALY": 16.9675, "EPHEMERIS_TYPE": 0, "CLASSIFICATION_TYPE": "U", "NORAD_CAT_ID": 66839, "ELEMENT_SET_NO": 999, "REV_AT_EPOCH": 383, "BSTAR": -0.030778106, "MEAN_MOTION_DOT": -0.01981171, "MEAN_MOTION_DDOT": 0}, "tle": {"line1": "1 66839U 25280U   25352.58336806 -.01981171  00000+0 -30778-1 0  9990", "line2": "2 66839  69.9993 182.3808 0003524 264.6982  16.9675 15.57275087  3835"}}, "geometry": {"type": "Point", "coordinates": [-178.33215017616294, 1.0653165182123112]}}, {"type": "Feature", "properties": {"norad_id": 66840, "name": "STARLINK-35837", "group": "last-30-days", "lat": 4.66351001783864, "lon": -177.02125469995906, "alt_km": 402.81046386574326, "timestamp": "2025-12-18T23:35:47.782172+00:00", "meta": {"OBJECT_NAME": "STARLINK-35837", "OBJECT_ID": "2025-280V", "EPOCH": "2025-12-18T14:00:03.000384", "MEAN_MOTION": 15.57281614, "ECCENTRICITY": 0.00033484, "INCLINATION": 69.9992, "RA_OF_ASC_NODE": 182.3771, "ARG_OF_PERICENTER": 263.9375, "MEAN_ANOMALY": 21.5597, "EPHEMERIS_TYPE": 0, "CLASSIFICATION_TYPE": "U", "NORAD_CAT_ID": 66840, "ELEMENT_SET_NO": 999, "REV_AT_EPOCH": 383, "BSTAR": -0.031002803, "MEAN_MOTION_DOT": -0.0199413, "MEAN_MOTION_DDOT": 0}, "tle": {"line1": "1 66840U 25280V   25352.58336806 -.01994130  00000+0 -31003-1 0  9993", "line2": "2 66840  69.9992 182.3771 0003348 263.9375  21.5597 15.57281614  3835"}}, "geometry": {"type": "Point", "coordinates": [-177.02125469995906, 4.66351001783864]}}, {"type": "Feature", "properties": {"norad_id": 66841, "name": "STARLINK-35715", "group": "last-30-days", "lat": 6.465183776718395, "lon": -176.36080298028918, "alt_km": 402.66707917134954, "timestamp": "2025-12-18T23:35:47.782184+00:00", "meta": {"OBJECT_NAME": "STARLINK-35715", "OBJECT_ID": "2025-280W", "EPOCH": "2025-12-18T14:00:03.000384", "MEAN_MOTION": 15.57282515, "ECCENTRICITY": 0.00034706, "INCLINATION": 69.9993, "RA_OF_ASC_NODE": 182.3746, "ARG_OF_PERICENTER": 263.2851, "MEAN_ANOMALY": 24.1267, "EPHEMERIS_TYPE": 0, "CLASSIFICATION_TYPE": "U", "NORAD_CAT_ID": 66841, "ELEMENT_SET_NO": 999, "REV_AT_EPOCH": 383, "BSTAR": -0.030976566, "MEAN_MOTION_DOT": -0.01992816, "MEAN_MOTION_DDOT": 0}, "tle": {"line1": "1 66841U 25280W   25352.58336806 -.01992816  00000+0 -30977-1 0  9992", "line2": "2 66841  69.9993 182.3746 0003470 263.2851  24.1267 15.57282515  3831"}}, "geometry": {"type": "Point", "coordinates": [-176.36080298028918, 6.465183776718395]}}, {"type": "Feature", "properties": {"norad_id": 66842, "name": "STARLINK-35769", "group": "last-30-days", "lat": 8.264329192746056, "lon": -175.6960197282381, "alt_km": 402.4299095159522, "timestamp": "2025-12-18T23:35:47.782196+00:00", "meta": {"OBJECT_NAME": "STARLINK-35769", "OBJECT_ID": "2025-280X", "EPOCH": "2025-12-18T14:00:03.000384", "MEAN_MOTION": 15.57284383, "ECCENTRICITY": 0.00034665, "INCLINATION": 69.9993, "RA_OF_ASC_NODE": 182.3723, "ARG_OF_PERICENTER": 264.7975, "MEAN_ANOMALY": 24.5325, "EPHEMERIS_TYPE": 0, "CLASSIFICATION_TYPE": "U", "NORAD_CAT_ID": 66842, "ELEMENT_SET_NO": 999, "REV_AT_EPOCH": 383, "BSTAR": -0.031094496, "MEAN_MOTION_DOT": -0.01999586, "MEAN_MOTION_DDOT": 0}, "tle": {"line1": "1 66842U 25280X   25352.58336806 -.01999586  00000+0 -31094-1 0  9995", "line2": "2 66842  69.9993 182.3723 0003466 264.7975  24.5325 15.57284383  3839"}}, "geometry": {"type": "Point", "coordinates": [-175.6960197282381, 8.264329192746056]}}, {"type": "Feature", "properties": {"norad_id": 66843, "name": "STARLINK-35997", "group": "last-30-days", "lat": 11.858310834357983, "lon": -174.34869961391885, "alt_km": 402.1094250345104, "timestamp": "2025-12-18T23:35:47.782206+00:00", "meta": {"OBJECT_NAME": "STARLINK-35997", "OBJECT_ID": "2025-280Y", "EPOCH": "2025-12-18T14:00:03.000384", "MEAN_MOTION": 15.57274391, "ECCENTRICITY": 0.00033088, "INCLINATION": 69.9995, "RA_OF_ASC_NODE": 182.366, "ARG_OF_PERICENTER": 261.4199, "MEAN_ANOMALY": 31.7447, "EPHEMERIS_TYPE": 0, "CLASSIFICATION_TYPE": "U", "NORAD_CAT_ID": 66843, "ELEMENT_SET_NO": 999, "REV_AT_EPOCH": 383, "BSTAR": -0.030759603, "MEAN_MOTION_DOT": -0.01979892, "MEAN_MOTION_DDOT": 0}, "tle": {"line1": "1 66843U 25280Y   25352.58336806 -.01979892  00000+0 -30760-1 0  9993", "line2": "2 66843  69.9995 182.3660 0003308 261.4199  31.7447 15.57274391  3832"}}, "geometry": {"type": "Point", "coordinates": [-174.34869961391885, 11.858310834357983]}}, {"type": "Feature", "properties": {"norad_id": 66844, "name": "STARLINK-36073", "group": "last-30-days", "lat": 10.059669645892074, "lon": -175.0261353428262, "alt_km": 402.25582737127024, "timestamp": "2025-12-18T23:35:47.782218+00:00", "meta": {"OBJECT_NAME": "STARLINK-36073", "OBJECT_ID": "2025-280Z", "EPOCH": "2025-12-18T14:00:03.000384", "MEAN_MOTION": 15.57279929, "ECCENTRICITY": 0.00033152, "INCLINATION": 69.9993, "RA_OF_ASC_NODE": 182.37, "ARG_OF_PERICENTER": 263.6016, "MEAN_ANOMALY": 27.6471, "EPHEMERIS_TYPE": 0, "CLASSIFICATION_TYPE": "U", "NORAD_CAT_ID": 66844, "ELEMENT_SET_NO": 999, "REV_AT_EPOCH": 383, "BSTAR": -0.031024718, "MEAN_MOTION_DOT": -0.01995225, "MEAN_MOTION_DDOT": 0}, "tle": {"line1": "1 66844U 25280Z   25352.58336806 -.01995225  00000+0 -31025-1 0  9997", "line2": "2 66844  69.9993 182.3700 0003315 263.6016  27.6471 15.57279929  3839"}}, "geometry": {"type": "Point", "coordinates": [-175.0261353428262, 10.059669645892074]}}, {"type": "Feature", "properties": {"norad_id": 66845, "name": "STARLINK-36068", "group": "last-30-days", "lat": 17.241903460628354, "lon": -172.25040352795503, "alt_km": 401.40617365058915, "timestamp": "2025-12-18T23:35:47.782228+00:00", "meta": {"OBJECT_NAME": "STARLINK-36068", "OBJECT_ID": "2025-280AA", "EPOCH": "2025-12-18T14:00:03.000384", "MEAN_MOTION": 15.57277214, "ECCENTRICITY": 0.00034841, "INCLINATION": 69.9991, "RA_OF_ASC_NODE": 182.3597, "ARG_OF_PERICENTER": 264.8081, "MEAN_ANOMALY": 34.1065, "EPHEMERIS_TYPE": 0, "CLASSIFICATION_TYPE": "U", "NORAD_CAT_ID": 66845, "ELEMENT_SET_NO": 999, "REV_AT_EPOCH": 383, "BSTAR": -0.030853217, "MEAN_MOTION_DOT": -0.01985518, "MEAN_MOTION_DDOT": 0}, "tle": {"line1": "1 66845U 25280AA  25352.58336806 -.01985518  00000+0 -30853-1 0  9990", "line2": "2 66845  69.9991 182.3597 0003484 264.8081  34.1065 15.57277214  3831"}}, "geometry": {"type": "Point", "coordinates": [-172.25040352795503, 17.241903460628354]}}, {"type": "Feature", "properties": {"norad_id": 66846, "name": "STARLINK-36055", "group": "last-30-days", "lat": 13.656219591657864, "lon": -173.65905352966146, "alt_km": 401.8527879212006, "timestamp": "2025-12-18T23:35:47.782238+00:00", "meta": {"OBJECT_NAME": "STARLINK-36055", "OBJECT_ID": "2025-280AB", "EPOCH": "2025-12-18T14:00:03.000384", "MEAN_MOTION": 15.57284221, "ECCENTRICITY": 0.00035564, "INCLINATION": 69.9996, "RA_OF_ASC_NODE": 182.3648, "ARG_OF_PERICENTER": 265.0009, "MEAN_ANOMALY": 30.0794, "EPHEMERIS_TYPE": 0, "CLASSIFICATION_TYPE": "U", "NORAD_CAT_ID": 66846, "ELEMENT_SET_NO": 999, "REV_AT_EPOCH": 383, "BSTAR": -0.031102715, "MEAN_MOTION_DOT": -0.02000118, "MEAN_MOTION_DDOT": 0}, "tle": {"line1": "1 66846U 25280AB  25352.58336806 -.02000118  00000+0 -31103-1 0  9995", "line2": "2 66846  69.9996 182.3648 0003556 265.0009  30.0794 15.57284221  3837"}}, "geometry": {"type": "Point", "coordinates": [-173.65905352966146, 13.656219591657864]}}]}